ONEWEB-0387             
1 49313U 21090AL  23010.44751063  .00000083  00000+0  17146-3 0  9990
2 49313  87.9338 163.9202 0001255 100.5264 259.6010 13.20774598 64328
ONEWEB-0388             
1 49314U 21090AM  23010.54869119 -.00000034  00000+0 -11743-3 0  9999
2 49314  87.9272 194.1638 0001565  93.7941 266.3371 13.19724390 61060
ONEWEB-0389             
1 50469U 21132A   23010.18586773  .00000116  00000+0  26600-3 0  9998
2 50469  87.9096 254.9716 0000952  93.9056 266.2184 13.17650316 52949
ONEWEB-0390             
1 50470U 21132B   23010.49116418  .00000050  00000+0  95599-4 0  9990
2 50470  87.9096 254.9129 0001021  76.5715 283.5530 13.17648448 52980
ONEWEB-0391             
1 50471U 21132C   23010.41675524  .00000049  00000+0  91896-4 0  9995
2 50471  87.9099 254.8990 0001088  83.3830 276.7425 13.17651547 52976
ONEWEB-0392             
1 50472U 21132D   23010.38421807  .00000058  00000+0  11520-3 0  9990
2 50472  87.9104 254.9403 0001323  74.1621 285.9656 13.17647645 53009
ONEWEB-0393             
1 50473U 21132E   23010.39176602  .00000068  00000+0  14011-3 0  9991
2 50473  87.9094 254.9244 0001312  63.4392 296.6874 13.18155890 52990
ONEWEB-0394             
1 50474U 21132F   23010.58334491  .00000015  00000+0  00000+0 0  9996
2 50474  87.7136 224.7008 0003390  83.5468 171.1226 13.60108656  1306
ONEWEB-0395             
1 50475U 21132G   23010.45783152  .00000211  00000+0  55828-3 0  9995
2 50475  87.8854 270.2082 0001243  70.1204 290.0057 13.11419973 51398
ONEWEB-0396             
1 50476U 21132H   23010.58334491  .00000015  00000+0  00000+0 0  9998
2 50476  87.7276 224.7277 0001692  96.8826 241.6684 13.67817154  1307
ONEWEB-0397             
1 50477U 21132J   23010.58334491  .00000015  00000+0  00000+0 0  9999
2 50477  87.6890 224.7714 0004194  54.1642  95.4843 13.66682388  1308
ONEWEB-0398             
1 50478U 21132K   23010.42526904 -.00000251  00000+0 -74357-3 0  9999
2 50478  87.8853 270.2042 0001030  57.3547 302.7680 13.11414107 51282
ONEWEB-0399             
1 50479U 21132L   23010.25922267  .00000248  00000+0  66520-3 0  9990
2 50479  87.8853 270.2501 0001985  85.4554 274.6800 13.11414200 51254
ONEWEB-0400             
1 50480U 21132M   23010.58334491  .00000015  00000+0  00000+0 0  9993
2 50480  87.7111 224.6983 0002330  19.1641  68.9306 13.60764523  1301
ONEWEB-0401             
1 50481U 21132N   23010.58334491  .00000015  00000+0  00000+0 0  9994
2 50481  87.7136 224.7253 0002843  61.1203  69.6297 13.64405234  1302
ONEWEB-0402             
1 50482U 21132P   23010.66667824  .00000015  00000+0  00000+0 0  9993
2 50482  87.7432 224.6929 0005440  70.1872  83.9305 13.71213181 57675
ONEWEB-0403             
1 50483U 21132Q   23010.58334491  .00000015  00000+0  00000+0 0  9996
2 50483  87.7061 224.6922 0002310 103.5361   7.3317 13.58504259  1300
ONEWEB-0404             
1 50484U 21132R   23010.47008875  .00000562  00000+0  15513-2 0  9994
2 50484  87.8849 270.1700 0001049 111.0380 249.0860 13.11374715 51370
ONEWEB-0405             
1 50485U 21132S   23010.58334491 -.01501454  00000+0 -47078+0 0  9990
2 50485  87.3886 226.3102 0001302  32.3249 197.6244 14.44269115  1303
ONEWEB-0406             
1 50486U 21132T   23010.58334491  .00000015  00000+0  00000+0 0  9999
2 50486  87.7086 224.7243 0005643   7.1872 130.2825 13.63843630  1300
ONEWEB-0407             
1 50487U 21132U   23010.58334491  .00000015  00000+0  00000+0 0  9990
2 50487  87.7707 224.7073 0003650 353.0174 139.9514 13.56152453  1305
ONEWEB-0409             
1 50488U 21132V   23010.46791681  .00000524  00000+0  14427-2 0  9992
2 50488  87.8860 270.1662 0001006  91.7473 268.3770 13.11418822 51264
ONEWEB-0412             
1 50489U 21132W   23010.58334491  .00000015  00000+0  00000+0 0  9992
2 50489  87.7017 224.6983 0003995  28.2851 339.2220 13.59346060  1306
ONEWEB-0413             
1 50490U 21132X   23010.58334491  .00000015  00000+0  00000+0 0  9994
2 50490  87.7784 224.7101 0004247  69.4092 271.8217 13.57965784  1302
ONEWEB-0414             
1 50491U 21132Y   23010.58334491  .00000015  00000+0  00000+0 0  9995
2 50491  87.7435 224.7132 0004480  26.2053 133.8911 13.62180144  1300
ONEWEB-0417             
1 50492U 21132Z   23010.66667824  .00000015  00000+0  00000+0 0  9994
2 50492  87.7066 224.7032 0004615  12.4775 312.6357 13.63986823 57657
ONEWEB-0418             
1 50493U 21132AA  23010.66667824  .00000015  00000+0  00000+0 0  9995
2 50493  87.6716 224.7536 0004391  37.2614 207.3212 13.65951652 57649
ONEWEB-0419             
1 50494U 21132AB  23010.66667824  .00000015  00000+0  00000+0 0  9996
2 50494  87.7644 224.6503 0004677 332.6217 135.4438 13.57774674 57630
ONEWEB-0420             
1 50495U 21132AC  23010.66667824  .00000014  00000+0  00000+0 0  9996
2 50495  87.7471 224.6065 0005244  77.1187 112.7616 13.52486877 57647
ONEWEB-0421             
1 50496U 21132AD  23010.66667824  .00000015  00000+0  00000+0 0  9998
2 50496  87.8008 224.6070 0004605  96.7038 303.2342 13.64229577 57674
ONEWEB-0424             
1 50497U 21132AE  23010.66667824  .00000015  00000+0  00000+0 0  9999
2 50497  87.6515 224.7660 0003576  23.4040 126.7090 13.65773444 57663
ONEWEB-0426             
1 50498U 21132AF  23010.66667824  .00000015  00000+0  00000+0 0  9990
2 50498  87.7115 224.6601 0003622 112.3914  91.7184 13.58958414 57642
ONEWEB-0427             
1 50499U 21132AG  23010.66667824  .00000015  00000+0  00000+0 0  9991
2 50499  87.7991 224.6011 0001235  80.5298 143.7332 13.60761997 57676
ONEWEB-0429             
1 50500U 21132AH  23010.66667824  .00000015  00000+0  00000+0 0  9994
2 50500  87.7335 224.6381 0004385  63.3949 171.6337 13.54699515 57632
ONEWEB-0430             
1 50501U 21132AJ  23010.66667824  .00000015  00000+0  00000+0 0  9995
2 50501  87.7008 224.7649 0003709   7.6165 163.6620 13.68881495 57651
ONEWEB-0432             
1 50502U 21132AK  23010.66667824  .00000015  00000+0  00000+0 0  9996
2 50502  87.7676 224.6275 0007065  69.2698  48.3312 13.58282865 57653
ONEWEB-0440             
1 50503U 21132AL  23010.66667824  .00000015  00000+0  00000+0 0  9997
2 50503  87.7381 224.6374 0004823  57.1718  28.7337 13.54507927 57626
ONEWEB-0450             
1 50504U 21132AM  23010.66667824  .00000015  00000+0  00000+0 0  9998
2 50504  87.6847 224.7323 0002483  43.3127  76.4103 13.65109943 57651
ONEWEB-0410             
1 51622U 22012A   23010.42602857 -.00000123  00000+0 -35050-3 0  9996
2 51622  87.9129 254.9408 0001335 146.3481 213.7735 13.17646257 48591
ONEWEB-0411             
1 51623U 22012B   23010.45288036  .00000505  00000+0  14115-2 0  9999
2 51623  87.8773 285.4428 0001037  71.8951 288.2290 13.10371230 45094
ONEWEB-0415             
1 51624U 22012C   23010.52611845  .00000467  00000+0  13007-2 0  9992
2 51624  87.8762 285.4047 0001382  54.7428 305.3828 13.10371689 45100
ONEWEB-0416             
1 51625U 22012D   23010.46065086 -.00000016  00000+0 -81899-4 0  9994
2 51625  87.8756 285.3974 0001753  69.7751 290.3565 13.10371571 45133
ONEWEB-0422             
1 51626U 22012E   23010.43227191  .00000100  00000+0  22348-3 0  9994
2 51626  87.9095 254.9792 0002549  72.4079 287.7330 13.17647455 48709
ONEWEB-0423             
1 51627U 22012F   23010.42761196  .00000001  00000+0 -29829-4 0  9995
2 51627  87.9077 254.9334 0001250  80.3477 279.7796 13.17647729 48598
ONEWEB-0425             
1 51628U 22012G   23010.46999738 -.00000466  00000+0 -13706-2 0  9996
2 51628  87.8751 285.3963 0001916  92.7135 267.4212 13.10373281 45136
ONEWEB-0428             
1 51629U 22012H   23010.45130586  .00000445  00000+0  12391-2 0  9998
2 51629  87.8810 285.4060 0002197  67.9016 292.2345 13.10369746 45095
ONEWEB-0431             
1 51630U 22012J   23010.47933461 -.00000712  00000+0 -20765-2 0  9998
2 51630  87.8804 285.4109 0001826  44.2081 315.9192 13.10372231 45155
ONEWEB-0434             
1 51631U 22012K   23010.47310443 -.00000516  00000+0 -15136-2 0  9996
2 51631  87.8814 285.4046 0002065  65.5249 294.6093 13.10369633 45138
ONEWEB-0435             
1 51632U 22012L   23010.48246684 -.00000556  00000+0 -16303-2 0  9994
2 51632  87.8823 285.4001 0002295  64.2157 295.9207 13.10373710 45120
ONEWEB-0436             
1 51633U 22012M   23010.42451779  .00000083  00000+0  18010-3 0  9993
2 51633  87.9132 254.9357 0001846  77.5515 282.5823 13.17646973 48575
ONEWEB-0438             
1 51634U 22012N   23010.31259807 -.00000236  00000+0 -71279-3 0  9998
2 51634  87.8810 285.4336 0001663  82.5585 277.5731 13.10372341 45133
ONEWEB-0439             
1 51635U 22012P   23010.46843376 -.00000380  00000+0 -11251-2 0  9998
2 51635  87.8791 285.4156 0001721  72.9936 287.1380 13.10368123 45130
ONEWEB-0442             
1 51636U 22012Q   23010.57019517  .00000037  00000+0  61349-4 0  9995
2 51636  87.9104 254.9223 0000659 126.1815 233.9378 13.17647709 48588
ONEWEB-0443             
1 51637U 22012R   23010.43072357  .00000093  00000+0  20704-3 0  9993
2 51637  87.9132 254.9232 0002345  81.7844 278.3553 13.17644770 48619
ONEWEB-0444             
1 51638U 22012S   23010.45909803  .00000065  00000+0  15056-3 0  9994
2 51638  87.8819 285.4087 0001966  71.9917 288.1424 13.10367011 45142
ONEWEB-0445             
1 51639U 22012T   23010.48089377 -.00000702  00000+0 -20466-2 0  9993
2 51639  87.8799 285.4286 0001052  82.2038 277.9209 13.10375157 45154
ONEWEB-0446             
1 51640U 22012U   23010.45753709  .00000155  00000+0  40664-3 0  9992
2 51640  87.8767 285.4168 0001464  65.7776 294.3504 13.10371242 45132
ONEWEB-0448             
1 51641U 22012V   23010.46221984  .00000538  00000+0  15049-2 0  9992
2 51641  87.8744 285.4104 0001620  72.4668 287.6636 13.10371400 45101
ONEWEB-0449             
1 51642U 22012W   23010.46688984 -.00000287  00000+0 -85831-3 0  9990
2 51642  87.8812 285.4043 0001645  84.6022 275.5293 13.10370719 45114
